SKYSAT-C4               
1 41771U 16058B   26169.62447713  .00013015  00000+0  24524-3 0  9997
2 41771  96.9169 191.3364 0001508 136.3349 223.8022 15.48622769545690
SKYSAT-C5               
1 41772U 16058C   26169.60378841  .00006123  00000+0  18554-3 0  9999
2 41772  97.0465 210.1811 0000968 302.7268  57.3883 15.34486954543969
SKYSAT-C2               
1 41773U 16058D   26169.03805239  .00009950  00000+0  23453-3 0  9998
2 41773  97.0162 191.1010 0004617  68.9036 291.2706 15.42087351545188
SKYSAT-C3               
1 41774U 16058E   26169.62577539  .00019037  00000+0  31099-3 0  9995
2 41774  96.8998 200.4165 0001434  97.9111 262.2306 15.52591373546335
ALSAT-1B                
1 41785U 16059C   26169.73537459  .00000401  00000+0  70908-4 0  9995
2 41785  97.7744 178.4324 0008176 214.3332 145.7349 14.72276236520802
PATHFINDER 1            
1 41787U 16059E   26169.43189036  .00000441  00000+0  85379-4 0  9990
2 41787  97.8166 168.6520 0027894 199.5145 160.4995 14.67664399519899
SCATSAT 1               
1 41790U 16059H   26169.63350153  .00000847  00000+0  11818-3 0  9992
2 41790  98.1191 233.4146 0053440 242.7184 116.8579 14.79528086101806
GOKTURK 1A              
1 41875U 16073A   26169.68222153  .00000287  00000+0  65334-4 0  9996
2 41875  98.1250  64.3336 0001431  76.4415 283.6946 14.62775572509045
RESOURCESAT-2A          
1 41877U 16074A   26169.68958598  .00000406  00000+0  20535-3 0  9994
2 41877  98.7526 243.1820 0003319  80.8278 279.3274 14.21617804494516
CARTOSAT-2D             
1 41948U 17008A   26169.67333434  .00004321  00000+0  20837-3 0  9991
2 41948  97.4102 228.9521 0003845 228.2252 131.8655 15.19217979517804
SENTINEL-2B             
1 42063U 17013A   26169.67602302  .00000402  00000+0  17018-3 0  9992
2 42063  98.5692 244.4297 0001185  87.3659 272.7660 14.30818517484858
CARTOSAT-2E             
1 42767U 17036C   26169.69114102  .00004770  00000+0  22941-3 0  9999
2 42767  97.4270 229.4693 0002388 313.1296  46.9739 15.19267312498374
FORMOSAT-5              
1 42920U 17049A   26169.63905910  .00000116  00000+0  40304-4 0  9997
2 42920  98.2255 244.9165 0012669  80.3535 279.9091 14.50899345466886
SENTINEL-5P             
1 42969U 17064A   26169.68208691  .00000032  00000+0  36207-4 0  9998
2 42969  98.7925 111.8027 0000983  86.7879 273.3410 14.19519173449779
SKYSAT-C11              
1 42987U 17068A   26169.66305074  .00022267  00000+0  29879-3 0  9993
2 42987  97.4361 318.5576 0000558  93.6594 266.4725 15.57959535483473
SKYSAT-C10              
1 42988U 17068B   26169.66163049  .00007269  00000+0  21886-3 0  9993
2 42988  97.4514 306.5227 0001128  99.2589 260.8781 15.34658177482588
SKYSAT-C9               
1 42989U 17068C   26169.53717981  .00010720  00000+0  25661-3 0  9991
2 42989  97.4435 307.3447 0009443 128.7314 231.4778 15.41589461482965
SKYSAT-C8               
1 42990U 17068D   26169.63074359  .00008421  00000+0  23496-3 0  9998
2 42990  97.4531 306.2968 0001449  95.3737 264.7672 15.36999257482533
SKYSAT-C7               
1 42991U 17068E   26169.62440852  .00008465  00000+0  23636-3 0  9997
2 42991  97.4542 307.2799 0007189 102.5841 257.6208 15.36950162482597
SKYSAT-C6               
1 42992U 17068F   26169.64686748  .00007490  00000+0  22843-3 0  9992
2 42992  97.4576 307.2670 0004503 133.8673 226.2942 15.34231508482546
CARTOSAT-2F             
1 43111U 18004A   26169.72335825  .00003331  00000+0  16142-3 0  9998
2 43111  97.4779 229.3436 0000833 198.9251 161.1952 15.19223456467564
GAOFEN-1 02             
1 43259U 18031A   26169.72167784  .00000451  00000+0  72217-4 0  9994
2 43259  98.0524 232.2449 0003740  29.8777 330.2646 14.76457930442924
GAOFEN-1 03             
1 43260U 18031B   26169.69981431  .00000540  00000+0  85062-4 0  9996
2 43260  98.0517 232.0812 0003710  75.9934 284.1688 14.76470937442918
GAOFEN-1 04             
1 43262U 18031D   26169.74331692  .00000909  00000+0  13817-3 0  9999
2 43262  98.0525 232.3155 0002189  74.9915 285.1536 14.76437176442910
SENTINEL-3B             
1 43437U 18039A   26169.59230742  .00000077  00000+0  49671-4 0  9992
2 43437  98.6249 237.1045 0000722  91.3758 268.7505 14.26735069424328
GAOFEN-5 01             
1 43461U 18043A   26169.36332528  .00000264  00000+0  64489-4 0  9996
2 43461  98.4569 140.9742 0003030  81.4533 278.7010 14.60606295431864
GAOFEN-6                
1 43484U 18048A   26169.29089723  .00002342  00000+0  34220-3 0  9992
2 43484  97.9439 232.0243 0011887 162.1664 197.9965 14.76618754433558
GAOFEN-11 01            
1 43585U 18063A   26169.71747422  .00011171  00000+0  16607-3 0  9994
2 43585  97.1286 236.5927 0002916 350.5316   9.5883 15.55325029440586
ICESAT-2                
1 43613U 18070A   26169.66105250  .00007488  00000+0  27156-3 0  9992
2 43613  92.0085 291.3771 0006081 103.7962 256.3965 15.28304426432680
HYSIS                   
1 43719U 18096A   26169.70022146  .00000745  00000+0  10884-3 0  9993
2 43719  97.9838 236.4367 0001758  97.0286 263.1125 14.78620469407642
KAZSTSAT                
1 43783U 18099AB  26169.63193289  .00001403  00000+0  11765-3 0  9997
2 43783  97.4270 201.4944 0008562  65.9831 294.2288 14.99870351411528
