OBJECT_NAME,OBJECT_ID,EPOCH,MEAN_MOTION,ECCENTRICITY,INCLINATION,RA_OF_ASC_NODE,ARG_OF_PERICENTER,MEAN_ANOMALY,EPHEMERIS_TYPE,CLASSIFICATION_TYPE,NORAD_CAT_ID,ELEMENT_SET_NO,REV_AT_EPOCH,BSTAR,MEAN_MOTION_DOT,MEAN_MOTION_DDOT
SKYSAT-C4,2016-058B,2026-06-18T14:59:14.824032,15.48622769,.0001508,96.9169,191.3364,136.3349,223.8022,0,U,41771,999,54569,.24524E-3,.13015E-3,0
SKYSAT-C5,2016-058C,2026-06-18T14:29:27.318624,15.34486954,.0000968,97.0465,210.1811,302.7268,57.3883,0,U,41772,999,54396,.18554E-3,.6123E-4,0
SKYSAT-C2,2016-058D,2026-06-18T00:54:47.726496,15.42087351,.00046179,97.0162,191.1010,68.9036,291.2706,0,U,41773,999,54518,.23453008E-3,.995E-4,0
SKYSAT-C3,2016-058E,2026-06-18T15:01:06.993696,15.52591373,.0001434,96.8998,200.4165,97.9111,262.2306,0,U,41774,999,54633,.31099E-3,.19037E-3,0
ALSAT-1B,2016-059C,2026-06-18T17:38:56.364576,14.72276236,.0008176,97.7744,178.4324,214.3332,145.7349,0,U,41785,999,52080,.70908E-4,.401E-5,0
PATHFINDER 1,2016-059E,2026-06-18T10:21:55.327104,14.67664399,.0027894,97.8166,168.6520,199.5145,160.4995,0,U,41787,999,51989,.85379E-4,.441E-5,0
SCATSAT 1,2016-059H,2026-06-18T15:12:14.532192,14.79528086,.005344,98.1191,233.4146,242.7184,116.8579,0,U,41790,999,10180,.11818E-3,.847E-5,0
GOKTURK 1A,2016-073A,2026-06-18T16:22:23.940192,14.62775572,.0001431,98.1250,64.3336,76.4415,283.6946,0,U,41875,999,50904,.65334E-4,.287E-5,0
RESOURCESAT-2A,2016-074A,2026-06-18T16:33:00.228672,14.21617804,.0003319,98.7526,243.1820,80.8278,279.3274,0,U,41877,999,49451,.20535E-3,.406E-5,0
CARTOSAT-2D,2017-008A,2026-06-18T16:09:36.086976,15.19217979,.0003845,97.4102,228.9521,228.2252,131.8655,0,U,41948,999,51780,.20837E-3,.4321E-4,0
SENTINEL-2B,2017-013A,2026-06-18T16:13:28.388928,14.30818517,.0001185,98.5692,244.4297,87.3659,272.7660,0,U,42063,999,48485,.17018E-3,.402E-5,0
CARTOSAT-2E,2017-036C,2026-06-18T16:35:14.584128,15.19267312,.0002388,97.4270,229.4693,313.1296,46.9739,0,U,42767,999,49837,.22941E-3,.477E-4,0
FORMOSAT-5,2017-049A,2026-06-18T15:20:14.706240,14.50899345,.0012669,98.2255,244.9165,80.3535,279.9091,0,U,42920,999,46688,.40304E-4,.116E-5,0
SENTINEL-5P,2017-064A,2026-06-18T16:22:12.309024,14.19519173,.0000983,98.7925,111.8027,86.7879,273.3410,0,U,42969,999,44977,.36207E-4,.32E-6,0
SKYSAT-C11,2017-068A,2026-06-18T15:54:47.583936,15.57959535,.0000558,97.4361,318.5576,93.6594,266.4725,0,U,42987,999,48347,.29879E-3,.22267E-3,0
SKYSAT-C10,2017-068B,2026-06-18T15:52:44.874336,15.34658177,.0001128,97.4514,306.5227,99.2589,260.8781,0,U,42988,999,48258,.21886E-3,.7269E-4,0
SKYSAT-C9,2017-068C,2026-06-18T12:53:32.335584,15.41589461,.0009443,97.4435,307.3447,128.7314,231.4778,0,U,42989,999,48296,.25661E-3,.1072E-3,0
SKYSAT-C8,2017-068D,2026-06-18T15:08:16.246176,15.36999257,.0001449,97.4531,306.2968,95.3737,264.7672,0,U,42990,999,48253,.23496E-3,.8421E-4,0
SKYSAT-C7,2017-068E,2026-06-18T14:59:08.896128,15.36950162,.0007189,97.4542,307.2799,102.5841,257.6208,0,U,42991,999,48259,.23636E-3,.8465E-4,0
SKYSAT-C6,2017-068F,2026-06-18T15:31:29.350272,15.34231508,.0004503,97.4576,307.2670,133.8673,226.2942,0,U,42992,999,48254,.22843E-3,.749E-4,0
CARTOSAT-2F,2018-004A,2026-06-18T17:21:38.152800,15.19223456,.0000833,97.4779,229.3436,198.9251,161.1952,0,U,43111,999,46756,.16142E-3,.3331E-4,0
GAOFEN-1 02,2018-031A,2026-06-18T17:19:12.965376,14.76457930,.000374,98.0524,232.2449,29.8777,330.2646,0,U,43259,999,44292,.72217E-4,.451E-5,0
GAOFEN-1 03,2018-031B,2026-06-18T16:47:43.956384,14.76470937,.000371,98.0517,232.0812,75.9934,284.1688,0,U,43260,999,44291,.85062E-4,.54E-5,0
GAOFEN-1 04,2018-031D,2026-06-18T17:50:22.581888,14.76437176,.0002189,98.0525,232.3155,74.9915,285.1536,0,U,43262,999,44291,.13817E-3,.909E-5,0
SENTINEL-3B,2018-039A,2026-06-18T14:12:55.361088,14.26735069,.0000722,98.6249,237.1045,91.3758,268.7505,0,U,43437,999,42432,.49671E-4,.77E-6,0
GAOFEN-5 01,2018-043A,2026-06-18T08:43:11.304192,14.60606295,.000303,98.4569,140.9742,81.4533,278.7010,0,U,43461,999,43186,.64489E-4,.264E-5,0
GAOFEN-6,2018-048A,2026-06-18T06:58:53.520672,14.76618754,.0011887,97.9439,232.0243,162.1664,197.9965,0,U,43484,999,43355,.3422E-3,.2342E-4,0
GAOFEN-11 01,2018-063A,2026-06-18T17:13:09.772608,15.55325029,.0002916,97.1286,236.5927,350.5316,9.5883,0,U,43585,999,44058,.16607E-3,.11171E-3,0
ICESAT-2,2018-070A,2026-06-18T15:51:54.936000,15.28304426,.0006081,92.0085,291.3771,103.7962,256.3965,0,U,43613,999,43268,.27156E-3,.7488E-4,0
HYSIS,2018-096A,2026-06-18T16:48:19.134144,14.78620469,.0001758,97.9838,236.4367,97.0286,263.1125,0,U,43719,999,40764,.10884E-3,.745E-5,0
KAZSTSAT,2018-099AB,2026-06-18T15:09:59.001696,14.99870351,.0008562,97.4270,201.4944,65.9831,294.2288,0,U,43783,999,41152,.11765E-3,.1403E-4,0
